[{"district_id":"51.04","code":"51.04","name":"Kedewatan","zipcode":"80571","pro":"51","kab":"51.04","kec":"51.04","des":"51.04","Provinsi":"Bali","Kabupaten":"Gianyar","Kecamatan":"Ubud","Desa":"Kedewatan","Kodepos":"80571"},{"district_id":"51.04","code":"51.04","name":"Lodtunduh","zipcode":"80571","pro":"51","kab":"51.04","kec":"51.04","des":"51.04","Provinsi":"Bali","Kabupaten":"Gianyar","Kecamatan":"Ubud","Desa":"Lodtunduh","Kodepos":"80571"},{"district_id":"51.04","code":"51.04","name":"Mas","zipcode":"80571","pro":"51","kab":"51.04","kec":"51.04","des":"51.04","Provinsi":"Bali","Kabupaten":"Gianyar","Kecamatan":"Ubud","Desa":"Mas","Kodepos":"80571"},{"district_id":"51.04","code":"51.04","name":"Peliatan","zipcode":"80571","pro":"51","kab":"51.04","kec":"51.04","des":"51.04","Provinsi":"Bali","Kabupaten":"Gianyar","Kecamatan":"Ubud","Desa":"Peliatan","Kodepos":"80571"},{"district_id":"51.04","code":"51.04","name":"Petulu","zipcode":"80571","pro":"51","kab":"51.04","kec":"51.04","des":"51.04","Provinsi":"Bali","Kabupaten":"Gianyar","Kecamatan":"Ubud","Desa":"Petulu","Kodepos":"80571"},{"district_id":"51.04","code":"51.04","name":"Sayan","zipcode":"80571","pro":"51","kab":"51.04","kec":"51.04","des":"51.04","Provinsi":"Bali","Kabupaten":"Gianyar","Kecamatan":"Ubud","Desa":"Sayan","Kodepos":"80571"},{"district_id":"51.04","code":"51.04","name":"Singakerta (Singekerta)","zipcode":"80571","pro":"51","kab":"51.04","kec":"51.04","des":"51.04","Provinsi":"Bali","Kabupaten":"Gianyar","Kecamatan":"Ubud","Desa":"Singakerta (Singekerta)","Kodepos":"80571"},{"district_id":"51.04","code":"51.04","name":"Ubud","zipcode":"80571","pro":"51","kab":"51.04","kec":"51.04","des":"51.04","Provinsi":"Bali","Kabupaten":"Gianyar","Kecamatan":"Ubud","Desa":"Ubud","Kodepos":"80571"},{"district_id":"51.06","code":"51.06","name":"Bangbang","zipcode":"80671","pro":"51","kab":"51.06","kec":"51.06","des":"51.06","Provinsi":"Bali","Kabupaten":"Bangli","Kecamatan":"Tembuku","Desa":"Bangbang","Kodepos":"80671"},{"district_id":"51.06","code":"51.06","name":"Jehem","zipcode":"80671","pro":"51","kab":"51.06","kec":"51.06","des":"51.06","Provinsi":"Bali","Kabupaten":"Bangli","Kecamatan":"Tembuku","Desa":"Jehem","Kodepos":"80671"},{"district_id":"51.06","code":"51.06","name":"Peninjoan","zipcode":"80671","pro":"51","kab":"51.06","kec":"51.06","des":"51.06","Provinsi":"Bali","Kabupaten":"Bangli","Kecamatan":"Tembuku","Desa":"Peninjoan","Kodepos":"80671"},{"district_id":"51.06","code":"51.06","name":"Tembuku","zipcode":"80671","pro":"51","kab":"51.06","kec":"51.06","des":"51.06","Provinsi":"Bali","Kabupaten":"Bangli","Kecamatan":"Tembuku","Desa":"Tembuku","Kodepos":"80671"},{"district_id":"51.06","code":"51.06","name":"Undisan","zipcode":"80671","pro":"51","kab":"51.06","kec":"51.06","des":"51.06","Provinsi":"Bali","Kabupaten":"Bangli","Kecamatan":"Tembuku","Desa":"Undisan","Kodepos":"80671"},{"district_id":"51.06","code":"51.06","name":"Yangapi","zipcode":"80671","pro":"51","kab":"51.06","kec":"51.06","des":"51.06","Provinsi":"Bali","Kabupaten":"Bangli","Kecamatan":"Tembuku","Desa":"Yangapi","Kodepos":"80671"},{"district_id":"51.08","code":"51.08","name":"Bondalem","zipcode":"81173","pro":"51","kab":"51.08","kec":"51.08","des":"51.08","Provinsi":"Bali","Kabupaten":"Buleleng","Kecamatan":"Tejakula","Desa":"Bondalem","Kodepos":"81173"},{"district_id":"51.08","code":"51.08","name":"Julah","zipcode":"81173","pro":"51","kab":"51.08","kec":"51.08","des":"51.08","Provinsi":"Bali","Kabupaten":"Buleleng","Kecamatan":"Tejakula","Desa":"Julah","Kodepos":"81173"},{"district_id":"51.08","code":"51.08","name":"Les","zipcode":"81173","pro":"51","kab":"51.08","kec":"51.08","des":"51.08","Provinsi":"Bali","Kabupaten":"Buleleng","Kecamatan":"Tejakula","Desa":"Les","Kodepos":"81173"},{"district_id":"51.08","code":"51.08","name":"Madenan","zipcode":"81173","pro":"51","kab":"51.08","kec":"51.08","des":"51.08","Provinsi":"Bali","Kabupaten":"Buleleng","Kecamatan":"Tejakula","Desa":"Madenan","Kodepos":"81173"},{"district_id":"51.08","code":"51.08","name":"Pacung","zipcode":"81173","pro":"51","kab":"51.08","kec":"51.08","des":"51.08","Provinsi":"Bali","Kabupaten":"Buleleng","Kecamatan":"Tejakula","Desa":"Pacung","Kodepos":"81173"},{"district_id":"51.08","code":"51.08","name":"Penuktukan","zipcode":"81173","pro":"51","kab":"51.08","kec":"51.08","des":"51.08","Provinsi":"Bali","Kabupaten":"Buleleng","Kecamatan":"Tejakula","Desa":"Penuktukan","Kodepos":"81173"},{"district_id":"51.08","code":"51.08","name":"Sambirenteng","zipcode":"81173","pro":"51","kab":"51.08","kec":"51.08","des":"51.08","Provinsi":"Bali","Kabupaten":"Buleleng","Kecamatan":"Tejakula","Desa":"Sambirenteng","Kodepos":"81173"},{"district_id":"51.08","code":"51.08","name":"Sembiran","zipcode":"81173","pro":"51","kab":"51.08","kec":"51.08","des":"51.08","Provinsi":"Bali","Kabupaten":"Buleleng","Kecamatan":"Tejakula","Desa":"Sembiran","Kodepos":"81173"},{"district_id":"51.08","code":"51.08","name":"Tejakula","zipcode":"81173","pro":"51","kab":"51.08","kec":"51.08","des":"51.08","Provinsi":"Bali","Kabupaten":"Buleleng","Kecamatan":"Tejakula","Desa":"Tejakula","Kodepos":"81173"},{"district_id":"51.08","code":"51.08","name":"Tembok","zipcode":"81173","pro":"51","kab":"51.08","kec":"51.08","des":"51.08","Provinsi":"Bali","Kabupaten":"Buleleng","Kecamatan":"Tejakula","Desa":"Tembok","Kodepos":"81173"},{"district_id":"51.04","code":"51.04","name":"Kedisan","zipcode":"80561","pro":"51","kab":"51.04","kec":"51.04","des":"51.04","Provinsi":"Bali","Kabupaten":"Gianyar","Kecamatan":"Tegallalang","Desa":"Kedisan","Kodepos":"80561"},{"district_id":"51.04","code":"51.04","name":"Keliki","zipcode":"80561","pro":"51","kab":"51.04","kec":"51.04","des":"51.04","Provinsi":"Bali","Kabupaten":"Gianyar","Kecamatan":"Tegallalang","Desa":"Keliki","Kodepos":"80561"},{"district_id":"51.04","code":"51.04","name":"Kenderan","zipcode":"80561","pro":"51","kab":"51.04","kec":"51.04","des":"51.04","Provinsi":"Bali","Kabupaten":"Gianyar","Kecamatan":"Tegallalang","Desa":"Kenderan","Kodepos":"80561"},{"district_id":"51.04","code":"51.04","name":"Pupuan","zipcode":"80561","pro":"51","kab":"51.04","kec":"51.04","des":"51.04","Provinsi":"Bali","Kabupaten":"Gianyar","Kecamatan":"Tegallalang","Desa":"Pupuan","Kodepos":"80561"},{"district_id":"51.04","code":"51.04","name":"Sebatu","zipcode":"80561","pro":"51","kab":"51.04","kec":"51.04","des":"51.04","Provinsi":"Bali","Kabupaten":"Gianyar","Kecamatan":"Tegallalang","Desa":"Sebatu","Kodepos":"80561"},{"district_id":"51.04","code":"51.04","name":"Taro","zipcode":"80561","pro":"51","kab":"51.04","kec":"51.04","des":"51.04","Provinsi":"Bali","Kabupaten":"Gianyar","Kecamatan":"Tegallalang","Desa":"Taro","Kodepos":"80561"},{"district_id":"51.04","code":"51.04","name":"Tegallalang","zipcode":"80561","pro":"51","kab":"51.04","kec":"51.04","des":"51.04","Provinsi":"Bali","Kabupaten":"Gianyar","Kecamatan":"Tegallalang","Desa":"Tegallalang","Kodepos":"80561"},{"district_id":"51.04","code":"51.04","name":"Manukaya","zipcode":"80552","pro":"51","kab":"51.04","kec":"51.04","des":"51.04","Provinsi":"Bali","Kabupaten":"Gianyar","Kecamatan":"Tampak Siring","Desa":"Manukaya","Kodepos":"80552"},{"district_id":"51.04","code":"51.04","name":"Pejeng","zipcode":"80552","pro":"51","kab":"51.04","kec":"51.04","des":"51.04","Provinsi":"Bali","Kabupaten":"Gianyar","Kecamatan":"Tampak Siring","Desa":"Pejeng","Kodepos":"80552"},{"district_id":"51.04","code":"51.04","name":"Pejeng Kaja","zipcode":"80552","pro":"51","kab":"51.04","kec":"51.04","des":"51.04","Provinsi":"Bali","Kabupaten":"Gianyar","Kecamatan":"Tampak Siring","Desa":"Pejeng Kaja","Kodepos":"80552"},{"district_id":"51.04","code":"51.04","name":"Pejeng Kangin","zipcode":"80552","pro":"51","kab":"51.04","kec":"51.04","des":"51.04","Provinsi":"Bali","Kabupaten":"Gianyar","Kecamatan":"Tampak Siring","Desa":"Pejeng Kangin","Kodepos":"80552"},{"district_id":"51.04","code":"51.04","name":"Pejeng Kawan","zipcode":"80552","pro":"51","kab":"51.04","kec":"51.04","des":"51.04","Provinsi":"Bali","Kabupaten":"Gianyar","Kecamatan":"Tampak Siring","Desa":"Pejeng Kawan","Kodepos":"80552"},{"district_id":"51.04","code":"51.04","name":"Pejeng Klod (Kelod)","zipcode":"80552","pro":"51","kab":"51.04","kec":"51.04","des":"51.04","Provinsi":"Bali","Kabupaten":"Gianyar","Kecamatan":"Tampak Siring","Desa":"Pejeng Klod (Kelod)","Kodepos":"80552"},{"district_id":"51.04","code":"51.04","name":"Sanding","zipcode":"80552","pro":"51","kab":"51.04","kec":"51.04","des":"51.04","Provinsi":"Bali","Kabupaten":"Gianyar","Kecamatan":"Tampak Siring","Desa":"Sanding","Kodepos":"80552"},{"district_id":"51.04","code":"51.04","name":"Tampaksiring","zipcode":"80552","pro":"51","kab":"51.04","kec":"51.04","des":"51.04","Provinsi":"Bali","Kabupaten":"Gianyar","Kecamatan":"Tampak Siring","Desa":"Tampaksiring","Kodepos":"80552"},{"district_id":"51.02","code":"51.02","name":"Bongan (Boongan)","zipcode":"82112","pro":"51","kab":"51.02","kec":"51.02","des":"51.02","Provinsi":"Bali","Kabupaten":"Tabanan","Kecamatan":"Tabanan","Desa":"Bongan (Boongan)","Kodepos":"82112"},{"district_id":"51.02","code":"51.02","name":"Buahan","zipcode":"82115","pro":"51","kab":"51.02","kec":"51.02","des":"51.02","Provinsi":"Bali","Kabupaten":"Tabanan","Kecamatan":"Tabanan","Desa":"Buahan","Kodepos":"82115"},{"district_id":"51.02","code":"51.02","name":"Dauh Peken","zipcode":"82111","pro":"51","kab":"51.02","kec":"51.02","des":"51.02","Provinsi":"Bali","Kabupaten":"Tabanan","Kecamatan":"Tabanan","Desa":"Dauh Peken","Kodepos":"82111"},{"district_id":"51.02","code":"51.02","name":"Dejan Peken (Dajan Peken)","zipcode":"82114","pro":"51","kab":"51.02","kec":"51.02","des":"51.02","Provinsi":"Bali","Kabupaten":"Tabanan","Kecamatan":"Tabanan","Desa":"Dejan Peken (Dajan Peken)","Kodepos":"82114"},{"district_id":"51.02","code":"51.02","name":"Delod Peken","zipcode":"82113","pro":"51","kab":"51.02","kec":"51.02","des":"51.02","Provinsi":"Bali","Kabupaten":"Tabanan","Kecamatan":"Tabanan","Desa":"Delod Peken","Kodepos":"82113"},{"district_id":"51.02","code":"51.02","name":"Denbantas","zipcode":"82115","pro":"51","kab":"51.02","kec":"51.02","des":"51.02","Provinsi":"Bali","Kabupaten":"Tabanan","Kecamatan":"Tabanan","Desa":"Denbantas","Kodepos":"82115"},{"district_id":"51.02","code":"51.02","name":"Gubug","zipcode":"82115","pro":"51","kab":"51.02","kec":"51.02","des":"51.02","Provinsi":"Bali","Kabupaten":"Tabanan","Kecamatan":"Tabanan","Desa":"Gubug","Kodepos":"82115"},{"district_id":"51.02","code":"51.02","name":"Sesandan","zipcode":"82115","pro":"51","kab":"51.02","kec":"51.02","des":"51.02","Provinsi":"Bali","Kabupaten":"Tabanan","Kecamatan":"Tabanan","Desa":"Sesandan","Kodepos":"82115"},{"district_id":"51.02","code":"51.02","name":"Subamia","zipcode":"82115","pro":"51","kab":"51.02","kec":"51.02","des":"51.02","Provinsi":"Bali","Kabupaten":"Tabanan","Kecamatan":"Tabanan","Desa":"Subamia","Kodepos":"82115"},{"district_id":"51.02","code":"51.02","name":"Sudimara","zipcode":"82115","pro":"51","kab":"51.02","kec":"51.02","des":"51.02","Provinsi":"Bali","Kabupaten":"Tabanan","Kecamatan":"Tabanan","Desa":"Sudimara","Kodepos":"82115"},{"district_id":"51.02","code":"51.02","name":"Tunjuk","zipcode":"82115","pro":"51","kab":"51.02","kec":"51.02","des":"51.02","Provinsi":"Bali","Kabupaten":"Tabanan","Kecamatan":"Tabanan","Desa":"Tunjuk","Kodepos":"82115"},{"district_id":"51.02","code":"51.02","name":"Wanasari","zipcode":"82111","pro":"51","kab":"51.02","kec":"51.02","des":"51.02","Provinsi":"Bali","Kabupaten":"Tabanan","Kecamatan":"Tabanan","Desa":"Wanasari","Kodepos":"82111"},{"district_id":"51.06","code":"51.06","name":"Abuan","zipcode":"80661","pro":"51","kab":"51.06","kec":"51.06","des":"51.06","Provinsi":"Bali","Kabupaten":"Bangli","Kecamatan":"Susut","Desa":"Abuan","Kodepos":"80661"},{"district_id":"51.06","code":"51.06","name":"Apuan","zipcode":"80661","pro":"51","kab":"51.06","kec":"51.06","des":"51.06","Provinsi":"Bali","Kabupaten":"Bangli","Kecamatan":"Susut","Desa":"Apuan","Kodepos":"80661"},{"district_id":"51.06","code":"51.06","name":"Demulih","zipcode":"80661","pro":"51","kab":"51.06","kec":"51.06","des":"51.06","Provinsi":"Bali","Kabupaten":"Bangli","Kecamatan":"Susut","Desa":"Demulih","Kodepos":"80661"},{"district_id":"51.06","code":"51.06","name":"Pengiangan","zipcode":"80661","pro":"51","kab":"51.06","kec":"51.06","des":"51.06","Provinsi":"Bali","Kabupaten":"Bangli","Kecamatan":"Susut","Desa":"Pengiangan","Kodepos":"80661"},{"district_id":"51.06","code":"51.06","name":"Penglumbaran","zipcode":"80661","pro":"51","kab":"51.06","kec":"51.06","des":"51.06","Provinsi":"Bali","Kabupaten":"Bangli","Kecamatan":"Susut","Desa":"Penglumbaran","Kodepos":"80661"},{"district_id":"51.06","code":"51.06","name":"Selat","zipcode":"80661","pro":"51","kab":"51.06","kec":"51.06","des":"51.06","Provinsi":"Bali","Kabupaten":"Bangli","Kecamatan":"Susut","Desa":"Selat","Kodepos":"80661"},{"district_id":"51.06","code":"51.06","name":"Sulahan","zipcode":"80661","pro":"51","kab":"51.06","kec":"51.06","des":"51.06","Provinsi":"Bali","Kabupaten":"Bangli","Kecamatan":"Susut","Desa":"Sulahan","Kodepos":"80661"},{"district_id":"51.06","code":"51.06","name":"Susut","zipcode":"80661","pro":"51","kab":"51.06","kec":"51.06","des":"51.06","Provinsi":"Bali","Kabupaten":"Bangli","Kecamatan":"Susut","Desa":"Susut","Kodepos":"80661"},{"district_id":"51.06","code":"51.06","name":"Tiga","zipcode":"80661","pro":"51","kab":"51.06","kec":"51.06","des":"51.06","Provinsi":"Bali","Kabupaten":"Bangli","Kecamatan":"Susut","Desa":"Tiga","Kodepos":"80661"},{"district_id":"51.04","code":"51.04","name":"Batuan","zipcode":"80582","pro":"51","kab":"51.04","kec":"51.04","des":"51.04","Provinsi":"Bali","Kabupaten":"Gianyar","Kecamatan":"Sukawati","Desa":"Batuan","Kodepos":"80582"},{"district_id":"51.04","code":"51.04","name":"Batuan Kaler","zipcode":"80582","pro":"51","kab":"51.04","kec":"51.04","des":"51.04","Provinsi":"Bali","Kabupaten":"Gianyar","Kecamatan":"Sukawati","Desa":"Batuan Kaler","Kodepos":"80582"},{"district_id":"51.04","code":"51.04","name":"Batubulan","zipcode":"80582","pro":"51","kab":"51.04","kec":"51.04","des":"51.04","Provinsi":"Bali","Kabupaten":"Gianyar","Kecamatan":"Sukawati","Desa":"Batubulan","Kodepos":"80582"},{"district_id":"51.04","code":"51.04","name":"Batubulan Kangin","zipcode":"80582","pro":"51","kab":"51.04","kec":"51.04","des":"51.04","Provinsi":"Bali","Kabupaten":"Gianyar","Kecamatan":"Sukawati","Desa":"Batubulan Kangin","Kodepos":"80582"},{"district_id":"51.04","code":"51.04","name":"Celuk","zipcode":"80582","pro":"51","kab":"51.04","kec":"51.04","des":"51.04","Provinsi":"Bali","Kabupaten":"Gianyar","Kecamatan":"Sukawati","Desa":"Celuk","Kodepos":"80582"},{"district_id":"51.04","code":"51.04","name":"Guwang","zipcode":"80582","pro":"51","kab":"51.04","kec":"51.04","des":"51.04","Provinsi":"Bali","Kabupaten":"Gianyar","Kecamatan":"Sukawati","Desa":"Guwang","Kodepos":"80582"},{"district_id":"51.04","code":"51.04","name":"Kemenuh","zipcode":"80582","pro":"51","kab":"51.04","kec":"51.04","des":"51.04","Provinsi":"Bali","Kabupaten":"Gianyar","Kecamatan":"Sukawati","Desa":"Kemenuh","Kodepos":"80582"},{"district_id":"51.04","code":"51.04","name":"Ketewel","zipcode":"80582","pro":"51","kab":"51.04","kec":"51.04","des":"51.04","Provinsi":"Bali","Kabupaten":"Gianyar","Kecamatan":"Sukawati","Desa":"Ketewel","Kodepos":"80582"},{"district_id":"51.04","code":"51.04","name":"Singapadu","zipcode":"80582","pro":"51","kab":"51.04","kec":"51.04","des":"51.04","Provinsi":"Bali","Kabupaten":"Gianyar","Kecamatan":"Sukawati","Desa":"Singapadu","Kodepos":"80582"},{"district_id":"51.04","code":"51.04","name":"Singapadu Kaler","zipcode":"80582","pro":"51","kab":"51.04","kec":"51.04","des":"51.04","Provinsi":"Bali","Kabupaten":"Gianyar","Kecamatan":"Sukawati","Desa":"Singapadu Kaler","Kodepos":"80582"},{"district_id":"51.04","code":"51.04","name":"Singapadu Tengah","zipcode":"80582","pro":"51","kab":"51.04","kec":"51.04","des":"51.04","Provinsi":"Bali","Kabupaten":"Gianyar","Kecamatan":"Sukawati","Desa":"Singapadu Tengah","Kodepos":"80582"},{"district_id":"51.04","code":"51.04","name":"Sukawati","zipcode":"80582","pro":"51","kab":"51.04","kec":"51.04","des":"51.04","Provinsi":"Bali","Kabupaten":"Gianyar","Kecamatan":"Sukawati","Desa":"Sukawati","Kodepos":"80582"},{"district_id":"51.08","code":"51.08","name":"Ambengan","zipcode":"81161","pro":"51","kab":"51.08","kec":"51.08","des":"51.08","Provinsi":"Bali","Kabupaten":"Buleleng","Kecamatan":"Sukasada","Desa":"Ambengan","Kodepos":"81161"},{"district_id":"51.08","code":"51.08","name":"Gitgit","zipcode":"81161","pro":"51","kab":"51.08","kec":"51.08","des":"51.08","Provinsi":"Bali","Kabupaten":"Buleleng","Kecamatan":"Sukasada","Desa":"Gitgit","Kodepos":"81161"},{"district_id":"51.08","code":"51.08","name":"Kayuputih","zipcode":"81161","pro":"51","kab":"51.08","kec":"51.08","des":"51.08","Provinsi":"Bali","Kabupaten":"Buleleng","Kecamatan":"Sukasada","Desa":"Kayuputih","Kodepos":"81161"},{"district_id":"51.08","code":"51.08","name":"Padangbulia","zipcode":"81161","pro":"51","kab":"51.08","kec":"51.08","des":"51.08","Provinsi":"Bali","Kabupaten":"Buleleng","Kecamatan":"Sukasada","Desa":"Padangbulia","Kodepos":"81161"},{"district_id":"51.08","code":"51.08","name":"Pancasari","zipcode":"81161","pro":"51","kab":"51.08","kec":"51.08","des":"51.08","Provinsi":"Bali","Kabupaten":"Buleleng","Kecamatan":"Sukasada","Desa":"Pancasari","Kodepos":"81161"},{"district_id":"51.08","code":"51.08","name":"Panji","zipcode":"81161","pro":"51","kab":"51.08","kec":"51.08","des":"51.08","Provinsi":"Bali","Kabupaten":"Buleleng","Kecamatan":"Sukasada","Desa":"Panji","Kodepos":"81161"},{"district_id":"51.08","code":"51.08","name":"Panji Anom","zipcode":"81161","pro":"51","kab":"51.08","kec":"51.08","des":"51.08","Provinsi":"Bali","Kabupaten":"Buleleng","Kecamatan":"Sukasada","Desa":"Panji Anom","Kodepos":"81161"},{"district_id":"51.08","code":"51.08","name":"Pegadungan","zipcode":"81161","pro":"51","kab":"51.08","kec":"51.08","des":"51.08","Provinsi":"Bali","Kabupaten":"Buleleng","Kecamatan":"Sukasada","Desa":"Pegadungan","Kodepos":"81161"},{"district_id":"51.08","code":"51.08","name":"Pegayaman","zipcode":"81161","pro":"51","kab":"51.08","kec":"51.08","des":"51.08","Provinsi":"Bali","Kabupaten":"Buleleng","Kecamatan":"Sukasada","Desa":"Pegayaman","Kodepos":"81161"},{"district_id":"51.08","code":"51.08","name":"Sambangan","zipcode":"81161","pro":"51","kab":"51.08","kec":"51.08","des":"51.08","Provinsi":"Bali","Kabupaten":"Buleleng","Kecamatan":"Sukasada","Desa":"Sambangan","Kodepos":"81161"},{"district_id":"51.08","code":"51.08","name":"Selat","zipcode":"81161","pro":"51","kab":"51.08","kec":"51.08","des":"51.08","Provinsi":"Bali","Kabupaten":"Buleleng","Kecamatan":"Sukasada","Desa":"Selat","Kodepos":"81161"},{"district_id":"51.08","code":"51.08","name":"Silangjana","zipcode":"81161","pro":"51","kab":"51.08","kec":"51.08","des":"51.08","Provinsi":"Bali","Kabupaten":"Buleleng","Kecamatan":"Sukasada","Desa":"Silangjana","Kodepos":"81161"},{"district_id":"51.08","code":"51.08","name":"Sukasada","zipcode":"81161","pro":"51","kab":"51.08","kec":"51.08","des":"51.08","Provinsi":"Bali","Kabupaten":"Buleleng","Kecamatan":"Sukasada","Desa":"Sukasada","Kodepos":"81161"},{"district_id":"51.08","code":"51.08","name":"Tegal Linggah (Tegalinggah)","zipcode":"81161","pro":"51","kab":"51.08","kec":"51.08","des":"51.08","Provinsi":"Bali","Kabupaten":"Buleleng","Kecamatan":"Sukasada","Desa":"Tegal Linggah (Tegalinggah)","Kodepos":"81161"},{"district_id":"51.08","code":"51.08","name":"Wanagiri","zipcode":"81161","pro":"51","kab":"51.08","kec":"51.08","des":"51.08","Provinsi":"Bali","Kabupaten":"Buleleng","Kecamatan":"Sukasada","Desa":"Wanagiri","Kodepos":"81161"},{"district_id":"51.07","code":"51.07","name":"Kertha Buana","zipcode":"80864","pro":"51","kab":"51.07","kec":"51.07","des":"51.07","Provinsi":"Bali","Kabupaten":"Karangasem","Kecamatan":"Sidemen","Desa":"Kertha Buana","Kodepos":"80864"},{"district_id":"51.07","code":"51.07","name":"Lokasari","zipcode":"80864","pro":"51","kab":"51.07","kec":"51.07","des":"51.07","Provinsi":"Bali","Kabupaten":"Karangasem","Kecamatan":"Sidemen","Desa":"Lokasari","Kodepos":"80864"},{"district_id":"51.07","code":"51.07","name":"Sangkan Gunung","zipcode":"80864","pro":"51","kab":"51.07","kec":"51.07","des":"51.07","Provinsi":"Bali","Kabupaten":"Karangasem","Kecamatan":"Sidemen","Desa":"Sangkan Gunung","Kodepos":"80864"},{"district_id":"51.07","code":"51.07","name":"Sidemen","zipcode":"80864","pro":"51","kab":"51.07","kec":"51.07","des":"51.07","Provinsi":"Bali","Kabupaten":"Karangasem","Kecamatan":"Sidemen","Desa":"Sidemen","Kodepos":"80864"},{"district_id":"51.07","code":"51.07","name":"Sindu Wati","zipcode":"80864","pro":"51","kab":"51.07","kec":"51.07","des":"51.07","Provinsi":"Bali","Kabupaten":"Karangasem","Kecamatan":"Sidemen","Desa":"Sindu Wati","Kodepos":"80864"},{"district_id":"51.07","code":"51.07","name":"Talibeng","zipcode":"80864","pro":"51","kab":"51.07","kec":"51.07","des":"51.07","Provinsi":"Bali","Kabupaten":"Karangasem","Kecamatan":"Sidemen","Desa":"Talibeng","Kodepos":"80864"},{"district_id":"51.07","code":"51.07","name":"Tangkup","zipcode":"80864","pro":"51","kab":"51.07","kec":"51.07","des":"51.07","Provinsi":"Bali","Kabupaten":"Karangasem","Kecamatan":"Sidemen","Desa":"Tangkup","Kodepos":"80864"},{"district_id":"51.07","code":"51.07","name":"Telaga Tawang","zipcode":"80864","pro":"51","kab":"51.07","kec":"51.07","des":"51.07","Provinsi":"Bali","Kabupaten":"Karangasem","Kecamatan":"Sidemen","Desa":"Telaga Tawang","Kodepos":"80864"},{"district_id":"51.07","code":"51.07","name":"Tri Eka Buana","zipcode":"80864","pro":"51","kab":"51.07","kec":"51.07","des":"51.07","Provinsi":"Bali","Kabupaten":"Karangasem","Kecamatan":"Sidemen","Desa":"Tri Eka Buana","Kodepos":"80864"},{"district_id":"51.07","code":"51.07","name":"Wisma Kerta","zipcode":"80864","pro":"51","kab":"51.07","kec":"51.07","des":"51.07","Provinsi":"Bali","Kabupaten":"Karangasem","Kecamatan":"Sidemen","Desa":"Wisma Kerta","Kodepos":"80864"},{"district_id":"51.08","code":"51.08","name":"Banjar Asem","zipcode":"81153","pro":"51","kab":"51.08","kec":"51.08","des":"51.08","Provinsi":"Bali","Kabupaten":"Buleleng","Kecamatan":"Seririt","Desa":"Banjar Asem","Kodepos":"81153"},{"district_id":"51.08","code":"51.08","name":"Bestala","zipcode":"81153","pro":"51","kab":"51.08","kec":"51.08","des":"51.08","Provinsi":"Bali","Kabupaten":"Buleleng","Kecamatan":"Seririt","Desa":"Bestala","Kodepos":"81153"},{"district_id":"51.08","code":"51.08","name":"Bubunan","zipcode":"81153","pro":"51","kab":"51.08","kec":"51.08","des":"51.08","Provinsi":"Bali","Kabupaten":"Buleleng","Kecamatan":"Seririt","Desa":"Bubunan","Kodepos":"81153"}]