[{"district_id":"51.08.02","code":"51.08.02","name":"Rangdu","zipcode":"81153"},{"district_id":"51.08.02","code":"51.08.02","name":"Ringdikit","zipcode":"81153"},{"district_id":"51.08.02","code":"51.08.02","name":"Seririt","zipcode":"81153"},{"district_id":"51.08.02","code":"51.08.02","name":"Sulanyah","zipcode":"81153"},{"district_id":"51.08.02","code":"51.08.02","name":"Tangguwisia","zipcode":"81153"},{"district_id":"51.08.02","code":"51.08.02","name":"Ularan","zipcode":"81153"},{"district_id":"51.08.02","code":"51.08.02","name":"Umeanyar","zipcode":"81153"},{"district_id":"51.08.02","code":"51.08.02","name":"Unggahan","zipcode":"81153"},{"district_id":"51.02.01","code":"51.02.01","name":"Antap","zipcode":"82162"},{"district_id":"51.02.01","code":"51.02.01","name":"Bajera","zipcode":"82162"},{"district_id":"51.02.01","code":"51.02.01","name":"Bajera Utara","zipcode":"82162"},{"district_id":"51.02.01","code":"51.02.01","name":"Berembeng","zipcode":"82162"},{"district_id":"51.02.01","code":"51.02.01","name":"Manikyang","zipcode":"82162"},{"district_id":"51.02.01","code":"51.02.01","name":"Pupuan Sawah","zipcode":"82162"},{"district_id":"51.02.01","code":"51.02.01","name":"Selemadeg","zipcode":"82162"},{"district_id":"51.02.01","code":"51.02.01","name":"Serampingan","zipcode":"82162"},{"district_id":"51.02.01","code":"51.02.01","name":"Wanagiri","zipcode":"82162"},{"district_id":"51.02.01","code":"51.02.01","name":"Wanagiri Kauh","zipcode":"82162"},{"district_id":"51.07.07","code":"51.07.07","name":"Amerta Bhuana","zipcode":"80862"},{"district_id":"51.07.07","code":"51.07.07","name":"Duda","zipcode":"80862"},{"district_id":"51.07.07","code":"51.07.07","name":"Duda Timur","zipcode":"80862"},{"district_id":"51.07.07","code":"51.07.07","name":"Duda Utara","zipcode":"80862"},{"district_id":"51.07.07","code":"51.07.07","name":"Muncan","zipcode":"80862"},{"district_id":"51.07.07","code":"51.07.07","name":"Pering Sari","zipcode":"80862"},{"district_id":"51.07.07","code":"51.07.07","name":"Sebudi","zipcode":"80862"},{"district_id":"51.07.07","code":"51.07.07","name":"Selat","zipcode":"80862"},{"district_id":"51.08.07","code":"51.08.07","name":"Bebetin","zipcode":"81171"},{"district_id":"51.08.07","code":"51.08.07","name":"Bungkulan","zipcode":"81171"},{"district_id":"51.08.07","code":"51.08.07","name":"Galungan","zipcode":"81171"},{"district_id":"51.08.07","code":"51.08.07","name":"Giri Emas","zipcode":"81171"},{"district_id":"51.08.07","code":"51.08.07","name":"Jagaraga","zipcode":"81171"},{"district_id":"51.08.07","code":"51.08.07","name":"Kerobokan","zipcode":"81171"},{"district_id":"51.08.07","code":"51.08.07","name":"Lemukih","zipcode":"81171"},{"district_id":"51.08.07","code":"51.08.07","name":"Menyali","zipcode":"81171"},{"district_id":"51.08.07","code":"51.08.07","name":"Sangsit","zipcode":"81171"},{"district_id":"51.08.07","code":"51.08.07","name":"Sawan","zipcode":"81171"},{"district_id":"51.08.07","code":"51.08.07","name":"Sekumpul","zipcode":"81171"},{"district_id":"51.08.07","code":"51.08.07","name":"Sinabun","zipcode":"81171"},{"district_id":"51.08.07","code":"51.08.07","name":"Sudaji","zipcode":"81171"},{"district_id":"51.08.07","code":"51.08.07","name":"Suwug","zipcode":"81171"},{"district_id":"-----------------","code":"-----------------","name":"Bantas","zipcode":"82162"},{"district_id":"-----------------","code":"-----------------","name":"Beraban","zipcode":"82162"},{"district_id":"-----------------","code":"-----------------","name":"Dalang","zipcode":"82162"},{"district_id":"-----------------","code":"-----------------","name":"Gadung Sari","zipcode":"82162"},{"district_id":"-----------------","code":"-----------------","name":"Gadungan","zipcode":"82162"},{"district_id":"-----------------","code":"-----------------","name":"Gunung Salak","zipcode":"82162"},{"district_id":"-----------------","code":"-----------------","name":"Mambang","zipcode":"82162"},{"district_id":"-----------------","code":"-----------------","name":"Megati","zipcode":"82162"},{"district_id":"-----------------","code":"-----------------","name":"Tangguntiti","zipcode":"82162"},{"district_id":"-----------------","code":"-----------------","name":"Tegal Mengkeb","zipcode":"82162"},{"district_id":"51.02.03","code":"51.02.03","name":"Angkah","zipcode":"82162"},{"district_id":"51.02.03","code":"51.02.03","name":"Antosari","zipcode":"82162"},{"district_id":"51.02.03","code":"51.02.03","name":"Bengkel Sari","zipcode":"82162"},{"district_id":"51.02.03","code":"51.02.03","name":"Lalang Linggah","zipcode":"82162"},{"district_id":"51.02.03","code":"51.02.03","name":"Lumbung","zipcode":"82162"},{"district_id":"51.02.03","code":"51.02.03","name":"Lumbung Kauh","zipcode":"82162"},{"district_id":"51.02.03","code":"51.02.03","name":"Mundeh","zipcode":"82162"},{"district_id":"51.02.03","code":"51.02.03","name":"Mundeh Kangin","zipcode":"82162"},{"district_id":"51.02.03","code":"51.02.03","name":"Mundeh Kauh","zipcode":"82162"},{"district_id":"51.02.03","code":"51.02.03","name":"Selabih","zipcode":"82162"},{"district_id":"51.02.03","code":"51.02.03","name":"Tiying Gading","zipcode":"82162"},{"district_id":"51.07.01","code":"51.07.01","name":"Besakih","zipcode":"80863"},{"district_id":"51.07.01","code":"51.07.01","name":"Menanga","zipcode":"80863"},{"district_id":"51.07.01","code":"51.07.01","name":"Nongan","zipcode":"80863"},{"district_id":"51.07.01","code":"51.07.01","name":"Pempatan","zipcode":"80863"},{"district_id":"51.07.01","code":"51.07.01","name":"Pesaban","zipcode":"80863"},{"district_id":"51.07.01","code":"51.07.01","name":"Rendang","zipcode":"80863"},{"district_id":"51.02.10","code":"51.02.10","name":"Bantiran","zipcode":"82163"},{"district_id":"51.02.10","code":"51.02.10","name":"Batungsel","zipcode":"82163"},{"district_id":"51.02.10","code":"51.02.10","name":"Belatungan","zipcode":"82163"},{"district_id":"51.02.10","code":"51.02.10","name":"Belimbing","zipcode":"82163"},{"district_id":"51.02.10","code":"51.02.10","name":"Jelijih Punggang","zipcode":"82163"},{"district_id":"51.02.10","code":"51.02.10","name":"Karya Sari","zipcode":"82163"},{"district_id":"51.02.10","code":"51.02.10","name":"Kebon Padangan","zipcode":"82163"},{"district_id":"51.02.10","code":"51.02.10","name":"Munduk Temu","zipcode":"82163"},{"district_id":"51.02.10","code":"51.02.10","name":"Padangan","zipcode":"82163"},{"district_id":"51.02.10","code":"51.02.10","name":"Pajahan","zipcode":"82163"},{"district_id":"51.02.10","code":"51.02.10","name":"Pujungan","zipcode":"82163"},{"district_id":"51.02.10","code":"51.02.10","name":"Pupuan","zipcode":"82163"},{"district_id":"51.02.10","code":"51.02.10","name":"Sai","zipcode":"82163"},{"district_id":"51.02.10","code":"51.02.10","name":"Sanda","zipcode":"82163"},{"district_id":"51.03.04","code":"51.03.04","name":"Belok","zipcode":"80353"},{"district_id":"51.03.04","code":"51.03.04","name":"Carangsari","zipcode":"80353"},{"district_id":"51.03.04","code":"51.03.04","name":"Getasan","zipcode":"80353"},{"district_id":"51.03.04","code":"51.03.04","name":"Pangsan","zipcode":"80353"},{"district_id":"51.03.04","code":"51.03.04","name":"Pelaga","zipcode":"80353"},{"district_id":"51.03.04","code":"51.03.04","name":"Petang","zipcode":"80353"},{"district_id":"51.03.04","code":"51.03.04","name":"Sulangai","zipcode":"80353"},{"district_id":"51.02.08","code":"51.02.08","name":"Babahan","zipcode":"82152"},{"district_id":"51.02.08","code":"51.02.08","name":"Biaung","zipcode":"82152"},{"district_id":"51.02.08","code":"51.02.08","name":"Buruan","zipcode":"82152"},{"district_id":"51.02.08","code":"51.02.08","name":"Jatiluwih","zipcode":"82152"},{"district_id":"51.02.08","code":"51.02.08","name":"Jegu","zipcode":"82152"},{"district_id":"51.02.08","code":"51.02.08","name":"Mengeste","zipcode":"82152"},{"district_id":"51.02.08","code":"51.02.08","name":"Penatahan","zipcode":"82152"},{"district_id":"51.02.08","code":"51.02.08","name":"Penebel","zipcode":"82152"},{"district_id":"51.02.08","code":"51.02.08","name":"Pesagi","zipcode":"82152"},{"district_id":"51.02.08","code":"51.02.08","name":"Pitra","zipcode":"82152"},{"district_id":"51.02.08","code":"51.02.08","name":"Rejasa","zipcode":"82152"},{"district_id":"51.02.08","code":"51.02.08","name":"Riang Gede","zipcode":"82152"},{"district_id":"51.02.08","code":"51.02.08","name":"Sangketan","zipcode":"82152"},{"district_id":"51.02.08","code":"51.02.08","name":"Senganan","zipcode":"82152"},{"district_id":"51.02.08","code":"51.02.08","name":"Tajen","zipcode":"82152"},{"district_id":"51.02.08","code":"51.02.08","name":"Tegalinggah","zipcode":"82152"},{"district_id":"51.02.08","code":"51.02.08","name":"Tengkudak","zipcode":"82152"},{"district_id":"51.02.08","code":"51.02.08","name":"Wongaya Gede","zipcode":"82152"},{"district_id":"51.01.03","code":"51.01.03","name":"Asahduren","zipcode":"82262"},{"district_id":"51.01.03","code":"51.01.03","name":"Gumbrih","zipcode":"82262"},{"district_id":"51.01.03","code":"51.01.03","name":"Manggissari","zipcode":"82262"},{"district_id":"51.01.03","code":"51.01.03","name":"Medewi","zipcode":"82262"},{"district_id":"51.01.03","code":"51.01.03","name":"Pangyangan","zipcode":"82262"},{"district_id":"51.01.03","code":"51.01.03","name":"Pekutatan","zipcode":"82262"},{"district_id":"51.01.03","code":"51.01.03","name":"Pengeragoan (Pengragoan)","zipcode":"82262"},{"district_id":"51.01.03","code":"51.01.03","name":"Pulukan","zipcode":"82262"},{"district_id":"51.04.07","code":"51.04.07","name":"Bresela (Beresela)","zipcode":"80572"},{"district_id":"51.04.07","code":"51.04.07","name":"Buahan","zipcode":"80572"},{"district_id":"51.04.07","code":"51.04.07","name":"Buahan Kaja","zipcode":"80572"},{"district_id":"51.04.07","code":"51.04.07","name":"Bukian","zipcode":"80572"},{"district_id":"51.04.07","code":"51.04.07","name":"Kelusa","zipcode":"80572"},{"district_id":"51.04.07","code":"51.04.07","name":"Kerta","zipcode":"80572"},{"district_id":"51.04.07","code":"51.04.07","name":"Melinggih","zipcode":"80572"},{"district_id":"51.04.07","code":"51.04.07","name":"Melinggih Kelod","zipcode":"80572"},{"district_id":"51.04.07","code":"51.04.07","name":"Puhu","zipcode":"80572"},{"district_id":"51.05.01","code":"51.05.01","name":"Batukandik","zipcode":"80771"},{"district_id":"51.05.01","code":"51.05.01","name":"Batumadeg","zipcode":"80771"},{"district_id":"51.05.01","code":"51.05.01","name":"Batununggul","zipcode":"80771"},{"district_id":"51.05.01","code":"51.05.01","name":"Bunga Mekar","zipcode":"80771"},{"district_id":"51.05.01","code":"51.05.01","name":"Jungutbatu","zipcode":"80771"},{"district_id":"51.05.01","code":"51.05.01","name":"Kampung Toyapakeh","zipcode":"80771"},{"district_id":"51.05.01","code":"51.05.01","name":"Klumpu","zipcode":"80771"},{"district_id":"51.05.01","code":"51.05.01","name":"Kutampi","zipcode":"80771"},{"district_id":"51.05.01","code":"51.05.01","name":"Kutampi Kaler","zipcode":"80771"},{"district_id":"51.05.01","code":"51.05.01","name":"Lembongan","zipcode":"80771"},{"district_id":"51.05.01","code":"51.05.01","name":"Ped","zipcode":"80771"},{"district_id":"51.05.01","code":"51.05.01","name":"Pejukutan","zipcode":"80771"},{"district_id":"51.05.01","code":"51.05.01","name":"Sakti","zipcode":"80771"},{"district_id":"51.05.01","code":"51.05.01","name":"Sekartaji","zipcode":"80771"},{"district_id":"51.05.01","code":"51.05.01","name":"Suana","zipcode":"80771"},{"district_id":"51.05.01","code":"51.05.01","name":"Tanglad","zipcode":"80771"},{"district_id":"51.01.01","code":"51.01.01","name":"Baler Bale Agung","zipcode":"82212"},{"district_id":"51.01.01","code":"51.01.01","name":"Baluk","zipcode":"82218"},{"district_id":"51.01.01","code":"51.01.01","name":"Banjar Tengah","zipcode":"82213"},{"district_id":"51.01.01","code":"51.01.01","name":"Banyubiru","zipcode":"82218"},{"district_id":"51.01.01","code":"51.01.01","name":"Berangbang","zipcode":"82218"},{"district_id":"51.01.01","code":"51.01.01","name":"Cupel","zipcode":"82218"},{"district_id":"51.01.01","code":"51.01.01","name":"Kaliakah","zipcode":"82218"},{"district_id":"51.01.01","code":"51.01.01","name":"Lelateng","zipcode":"82214"},{"district_id":"51.01.01","code":"51.01.01","name":"Loloan Barat","zipcode":"82215"},{"district_id":"51.01.01","code":"51.01.01","name":"Pengambengan","zipcode":"82218"},{"district_id":"51.01.01","code":"51.01.01","name":"Tegal Badeng Barat","zipcode":"82218"},{"district_id":"51.01.01","code":"51.01.01","name":"Tegal Badeng Timur","zipcode":"82218"},{"district_id":"51.03.02","code":"51.03.02","name":"Abianbase","zipcode":"80351"},{"district_id":"51.03.02","code":"51.03.02","name":"Baha","zipcode":"80351"},{"district_id":"51.03.02","code":"51.03.02","name":"Buduk","zipcode":"80351"},{"district_id":"51.03.02","code":"51.03.02","name":"Cemagi","zipcode":"80351"},{"district_id":"51.03.02","code":"51.03.02","name":"Gulingan","zipcode":"80351"},{"district_id":"51.03.02","code":"51.03.02","name":"Kapal","zipcode":"80351"},{"district_id":"51.03.02","code":"51.03.02","name":"Kekeran","zipcode":"80351"},{"district_id":"51.03.02","code":"51.03.02","name":"Kuwum","zipcode":"80351"},{"district_id":"51.03.02","code":"51.03.02","name":"Lukluk","zipcode":"80351"},{"district_id":"51.03.02","code":"51.03.02","name":"Mengwi","zipcode":"80351"},{"district_id":"51.03.02","code":"51.03.02","name":"Mengwitani","zipcode":"80351"},{"district_id":"51.03.02","code":"51.03.02","name":"Munggu","zipcode":"80351"},{"district_id":"51.03.02","code":"51.03.02","name":"Penarungan","zipcode":"80351"},{"district_id":"51.03.02","code":"51.03.02","name":"Pererenan","zipcode":"80351"},{"district_id":"51.03.02","code":"51.03.02","name":"Sading","zipcode":"80351"},{"district_id":"51.03.02","code":"51.03.02","name":"Sembung","zipcode":"80351"},{"district_id":"51.03.02","code":"51.03.02","name":"Sempidi","zipcode":"80351"},{"district_id":"51.03.02","code":"51.03.02","name":"Sobangan","zipcode":"80351"},{"district_id":"51.03.02","code":"51.03.02","name":"Tumbak Bayuh","zipcode":"80351"},{"district_id":"51.03.02","code":"51.03.02","name":"Werdi Bhuwana","zipcode":"80351"},{"district_id":"51.01.02","code":"51.01.02","name":"Delod Berawah","zipcode":"82261"},{"district_id":"51.01.02","code":"51.01.02","name":"Mendoyo Dangin Tukad","zipcode":"82261"},{"district_id":"51.01.02","code":"51.01.02","name":"Mendoyo Dauh Tukad","zipcode":"82261"},{"district_id":"51.01.02","code":"51.01.02","name":"Penyaringan","zipcode":"82261"},{"district_id":"51.01.02","code":"51.01.02","name":"Pergung","zipcode":"82261"},{"district_id":"51.01.02","code":"51.01.02","name":"Pohsanten","zipcode":"82261"},{"district_id":"51.01.02","code":"51.01.02","name":"Tegal Cangkring","zipcode":"82261"},{"district_id":"51.01.02","code":"51.01.02","name":"Yeh Embang","zipcode":"82261"},{"district_id":"51.01.02","code":"51.01.02","name":"Yeh Embang Kangin","zipcode":"82261"},{"district_id":"51.01.02","code":"51.01.02","name":"Yeh Embang Kauh","zipcode":"82261"},{"district_id":"51.01.02","code":"51.01.02","name":"Yeh Sumbul","zipcode":"82261"},{"district_id":"51.01.04","code":"51.01.04","name":"Blimbingsari (Belimbingsari)","zipcode":"82252"},{"district_id":"51.01.04","code":"51.01.04","name":"Candikusuma","zipcode":"82252"},{"district_id":"51.01.04","code":"51.01.04","name":"Ekasari","zipcode":"82252"},{"district_id":"51.01.04","code":"51.01.04","name":"Gilimanuk","zipcode":"82252"},{"district_id":"51.01.04","code":"51.01.04","name":"Manistutu","zipcode":"82252"},{"district_id":"51.01.04","code":"51.01.04","name":"Melaya","zipcode":"82252"},{"district_id":"51.01.04","code":"51.01.04","name":"Nusa Sari","zipcode":"82252"},{"district_id":"51.01.04","code":"51.01.04","name":"Tukadaya","zipcode":"82252"},{"district_id":"51.01.04","code":"51.01.04","name":"Tuwed","zipcode":"82252"},{"district_id":"51.01.04","code":"51.01.04","name":"Warnasari","zipcode":"82252"},{"district_id":"51.02.07","code":"51.02.07","name":"Baru","zipcode":"82181"},{"district_id":"51.02.07","code":"51.02.07","name":"Batannyuh","zipcode":"82181"},{"district_id":"51.02.07","code":"51.02.07","name":"Beringkit","zipcode":"82181"},{"district_id":"51.02.07","code":"51.02.07","name":"Cau Belayu","zipcode":"82181"},{"district_id":"51.02.07","code":"51.02.07","name":"Geluntung","zipcode":"82181"},{"district_id":"51.02.07","code":"51.02.07","name":"Kukuh","zipcode":"82181"},{"district_id":"51.02.07","code":"51.02.07","name":"Kuwum","zipcode":"82181"},{"district_id":"51.02.07","code":"51.02.07","name":"Marga","zipcode":"82181"},{"district_id":"51.02.07","code":"51.02.07","name":"Marga Dajan Puri","zipcode":"82181"},{"district_id":"51.02.07","code":"51.02.07","name":"Marga Dauh Puri","zipcode":"82181"},{"district_id":"51.02.07","code":"51.02.07","name":"Payangan","zipcode":"82181"},{"district_id":"51.02.07","code":"51.02.07","name":"Peken","zipcode":"82181"},{"district_id":"51.02.07","code":"51.02.07","name":"Petiga","zipcode":"82181"},{"district_id":"51.02.07","code":"51.02.07","name":"Selanbawak","zipcode":"82181"},{"district_id":"51.02.07","code":"51.02.07","name":"Tegaljadi","zipcode":"82181"},{"district_id":"51.02.07","code":"51.02.07","name":"Tua","zipcode":"82181"},{"district_id":"51.07.03","code":"51.07.03","name":"Antiga","zipcode":"80871"},{"district_id":"51.07.03","code":"51.07.03","name":"Antiga Kelod","zipcode":"80871"},{"district_id":"51.07.03","code":"51.07.03","name":"Gegelang","zipcode":"80871"},{"district_id":"51.07.03","code":"51.07.03","name":"Manggis","zipcode":"80871"},{"district_id":"51.07.03","code":"51.07.03","name":"Ngis","zipcode":"80871"},{"district_id":"51.07.03","code":"51.07.03","name":"Nyuh Tebel","zipcode":"80871"},{"district_id":"51.07.03","code":"51.07.03","name":"Padangbai","zipcode":"80871"},{"district_id":"51.07.03","code":"51.07.03","name":"Pesedahan","zipcode":"80871"},{"district_id":"51.07.03","code":"51.07.03","name":"Selumbung","zipcode":"80871"},{"district_id":"51.07.03","code":"51.07.03","name":"Sengkidu","zipcode":"80871"},{"district_id":"51.07.03","code":"51.07.03","name":"Tenganan","zipcode":"80871"},{"district_id":"51.07.03","code":"51.07.03","name":"Ulakan","zipcode":"80871"},{"district_id":"51.03.06","code":"51.03.06","name":"Canggu","zipcode":"80361"},{"district_id":"51.03.06","code":"51.03.06","name":"Dalung","zipcode":"80361"},{"district_id":"51.03.06","code":"51.03.06","name":"Kerobokan","zipcode":"80361"},{"district_id":"51.03.06","code":"51.03.06","name":"Kerobokan Kaja","zipcode":"80361"},{"district_id":"51.03.06","code":"51.03.06","name":"Kerobokan Kelod","zipcode":"80361"},{"district_id":"51.03.06","code":"51.03.06","name":"Tibubeneng","zipcode":"80361"},{"district_id":"51.03.05","code":"51.03.05","name":"Benoa","zipcode":"80361"},{"district_id":"51.03.05","code":"51.03.05","name":"Jimbaran","zipcode":"80361"},{"district_id":"51.03.05","code":"51.03.05","name":"Kutuh","zipcode":"80361"},{"district_id":"51.03.05","code":"51.03.05","name":"Pecatu","zipcode":"80361"},{"district_id":"51.03.05","code":"51.03.05","name":"Tanjung Benoa","zipcode":"80361"},{"district_id":"51.03.05","code":"51.03.05","name":"Ungasan","zipcode":"80361"},{"district_id":"51.03.01","code":"51.03.01","name":"Kedonganan","zipcode":"80361"},{"district_id":"51.03.01","code":"51.03.01","name":"Kuta","zipcode":"80361"},{"district_id":"51.03.01","code":"51.03.01","name":"Legian","zipcode":"80361"},{"district_id":"51.03.01","code":"51.03.01","name":"Seminyak","zipcode":"80361"},{"district_id":"51.03.01","code":"51.03.01","name":"Tuban","zipcode":"80361"},{"district_id":"51.08.08","code":"51.08.08","name":"Bengkala","zipcode":"81172"},{"district_id":"51.08.08","code":"51.08.08","name":"Bila","zipcode":"81172"},{"district_id":"51.08.08","code":"51.08.08","name":"Bontihing","zipcode":"81172"},{"district_id":"51.08.08","code":"51.08.08","name":"Bukti","zipcode":"81172"},{"district_id":"51.08.08","code":"51.08.08","name":"Bulian","zipcode":"81172"},{"district_id":"51.08.08","code":"51.08.08","name":"Depeha","zipcode":"81172"},{"district_id":"51.08.08","code":"51.08.08","name":"Kubutambahan","zipcode":"81172"},{"district_id":"51.08.08","code":"51.08.08","name":"Mengening","zipcode":"81172"},{"district_id":"51.08.08","code":"51.08.08","name":"Pakisan","zipcode":"81172"},{"district_id":"51.08.08","code":"51.08.08","name":"Tajun","zipcode":"81172"},{"district_id":"51.08.08","code":"51.08.08","name":"Tambakan","zipcode":"81172"},{"district_id":"51.08.08","code":"51.08.08","name":"Tamblang","zipcode":"81172"},{"district_id":"51.08.08","code":"51.08.08","name":"Tunjung","zipcode":"81172"},{"district_id":"14.07.01","code":"14.07.01","name":"Ban","zipcode":"80853"},{"district_id":"14.07.01","code":"14.07.01","name":"Batu Ringgit","zipcode":"80853"},{"district_id":"14.07.01","code":"14.07.01","name":"Dukuh","zipcode":"80853"},{"district_id":"14.07.01","code":"14.07.01","name":"Kubu","zipcode":"80853"},{"district_id":"14.07.01","code":"14.07.01","name":"Sukadana","zipcode":"80853"},{"district_id":"14.07.01","code":"14.07.01","name":"Tianyar Barat","zipcode":"80853"},{"district_id":"14.07.01","code":"14.07.01","name":"Tianyar Tengah","zipcode":"80853"},{"district_id":"14.07.01","code":"14.07.01","name":"Tianyar Timur","zipcode":"80853"},{"district_id":"14.07.01","code":"14.07.01","name":"Tulamben","zipcode":"80853"},{"district_id":"51.05.03","code":"51.05.03","name":"Akah","zipcode":"80716"},{"district_id":"51.05.03","code":"51.05.03","name":"Gelgel","zipcode":"80716"},{"district_id":"51.05.03","code":"51.05.03","name":"Jumpai","zipcode":"80716"},{"district_id":"51.05.03","code":"51.05.03","name":"Kamasan","zipcode":"80716"},{"district_id":"51.05.03","code":"51.05.03","name":"Kampung Gelgel","zipcode":"80716"},{"district_id":"51.05.03","code":"51.05.03","name":"Manduang","zipcode":"80716"},{"district_id":"51.05.03","code":"51.05.03","name":"Satra","zipcode":"80716"},{"district_id":"51.05.03","code":"51.05.03","name":"Selat","zipcode":"80716"},{"district_id":"51.05.03","code":"51.05.03","name":"Selisihan","zipcode":"80716"},{"district_id":"51.05.03","code":"51.05.03","name":"Semarapura Kaja","zipcode":"80712"},{"district_id":"51.05.03","code":"51.05.03","name":"Semarapura Kangin","zipcode":"80716"},{"district_id":"51.05.03","code":"51.05.03","name":"Semarapura Kauh","zipcode":"80713"},{"district_id":"51.05.03","code":"51.05.03","name":"Semarapura Klod Kangin","zipcode":"80716"},{"district_id":"51.05.03","code":"51.05.03","name":"Semarapura Klod\/Kelod","zipcode":"80716"},{"district_id":"51.05.03","code":"51.05.03","name":"Semarapura Tengah","zipcode":"80711"},{"district_id":"51.05.03","code":"51.05.03","name":"Tangkas","zipcode":"80716"},{"district_id":"51.05.03","code":"51.05.03","name":"Tegak","zipcode":"80716"},{"district_id":"51.05.03","code":"51.05.03","name":"Tojan","zipcode":"80716"},{"district_id":"51.06.04","code":"51.06.04","name":"Abang Songan","zipcode":"80652"},{"district_id":"51.06.04","code":"51.06.04","name":"Abuan","zipcode":"80652"},{"district_id":"51.06.04","code":"51.06.04","name":"Awan","zipcode":"80652"},{"district_id":"51.06.04","code":"51.06.04","name":"Bantang","zipcode":"80652"},{"district_id":"51.06.04","code":"51.06.04","name":"Banua","zipcode":"80652"},{"district_id":"51.06.04","code":"51.06.04","name":"Batu Dinding","zipcode":"80652"},{"district_id":"51.06.04","code":"51.06.04","name":"Batukaang","zipcode":"80652"},{"district_id":"51.06.04","code":"51.06.04","name":"Batur Selatan","zipcode":"80652"},{"district_id":"51.06.04","code":"51.06.04","name":"Batur Tengah","zipcode":"80652"},{"district_id":"51.06.04","code":"51.06.04","name":"Batur Utara","zipcode":"80652"},{"district_id":"51.06.04","code":"51.06.04","name":"Bayungcerik","zipcode":"80652"},{"district_id":"51.06.04","code":"51.06.04","name":"Bayunggede","zipcode":"80652"},{"district_id":"51.06.04","code":"51.06.04","name":"Belancan","zipcode":"80652"},{"district_id":"51.06.04","code":"51.06.04","name":"Belandingan","zipcode":"80652"},{"district_id":"51.06.04","code":"51.06.04","name":"Belanga","zipcode":"80652"},{"district_id":"51.06.04","code":"51.06.04","name":"Belantih","zipcode":"80652"},{"district_id":"51.06.04","code":"51.06.04","name":"Binyan","zipcode":"80652"},{"district_id":"51.06.04","code":"51.06.04","name":"Bonyoh","zipcode":"80652"},{"district_id":"51.06.04","code":"51.06.04","name":"Buahan","zipcode":"80652"},{"district_id":"51.06.04","code":"51.06.04","name":"Bunutin","zipcode":"80652"},{"district_id":"51.06.04","code":"51.06.04","name":"Catur","zipcode":"80652"},{"district_id":"51.06.04","code":"51.06.04","name":"Daup","zipcode":"80652"},{"district_id":"51.06.04","code":"51.06.04","name":"Dausa","zipcode":"80652"},{"district_id":"51.06.04","code":"51.06.04","name":"Gunungbau","zipcode":"80652"},{"district_id":"51.06.04","code":"51.06.04","name":"Katung","zipcode":"80652"},{"district_id":"51.06.04","code":"51.06.04","name":"Kedisan","zipcode":"80652"},{"district_id":"51.06.04","code":"51.06.04","name":"Kintamani","zipcode":"80652"},{"district_id":"51.06.04","code":"51.06.04","name":"Kutuh","zipcode":"80652"},{"district_id":"51.06.04","code":"51.06.04","name":"Langgahan","zipcode":"80652"},{"district_id":"51.06.04","code":"51.06.04","name":"Lembean","zipcode":"80652"},{"district_id":"51.06.04","code":"51.06.04","name":"Mangguh","zipcode":"80652"},{"district_id":"51.06.04","code":"51.06.04","name":"Manikliyu","zipcode":"80652"},{"district_id":"51.06.04","code":"51.06.04","name":"Mengani","zipcode":"80652"},{"district_id":"51.06.04","code":"51.06.04","name":"Pengejaran","zipcode":"80652"},{"district_id":"51.06.04","code":"51.06.04","name":"Pinggan","zipcode":"80652"},{"district_id":"51.06.04","code":"51.06.04","name":"Satra","zipcode":"80652"},{"district_id":"51.06.04","code":"51.06.04","name":"Sekaan","zipcode":"80652"},{"district_id":"51.06.04","code":"51.06.04","name":"Sekardadi","zipcode":"80652"},{"district_id":"51.06.04","code":"51.06.04","name":"Selulung","zipcode":"80652"},{"district_id":"51.06.04","code":"51.06.04","name":"Serahi","zipcode":"80652"},{"district_id":"51.06.04","code":"51.06.04","name":"Siyakin","zipcode":"80652"},{"district_id":"51.06.04","code":"51.06.04","name":"Songan A","zipcode":"80652"},{"district_id":"51.06.04","code":"51.06.04","name":"Songan B","zipcode":"80652"},{"district_id":"51.06.04","code":"51.06.04","name":"Subaya","zipcode":"80652"},{"district_id":"51.06.04","code":"51.06.04","name":"Sukawana","zipcode":"80652"},{"district_id":"51.06.04","code":"51.06.04","name":"Suter","zipcode":"80652"},{"district_id":"51.06.04","code":"51.06.04","name":"Terunyan","zipcode":"80652"},{"district_id":"51.06.04","code":"51.06.04","name":"Ulian","zipcode":"80652"},{"district_id":"51.02.04","code":"51.02.04","name":"Batuaji","zipcode":"82161"},{"district_id":"51.02.04","code":"51.02.04","name":"Baturiti","zipcode":"82161"},{"district_id":"51.02.04","code":"51.02.04","name":"Belumbang","zipcode":"82161"},{"district_id":"51.02.04","code":"51.02.04","name":"Kelating","zipcode":"82161"},{"district_id":"51.02.04","code":"51.02.04","name":"Kerambitan","zipcode":"82161"},{"district_id":"51.02.04","code":"51.02.04","name":"Kesiut","zipcode":"82161"},{"district_id":"51.02.04","code":"51.02.04","name":"Kukuh","zipcode":"82161"},{"district_id":"51.02.04","code":"51.02.04","name":"Meliling","zipcode":"82161"},{"district_id":"51.02.04","code":"51.02.04","name":"Pangkung Karung","zipcode":"82161"},{"district_id":"51.02.04","code":"51.02.04","name":"Penarukan","zipcode":"82161"},{"district_id":"51.02.04","code":"51.02.04","name":"Samsam","zipcode":"82161"},{"district_id":"51.02.04","code":"51.02.04","name":"Sembung Gede","zipcode":"82161"},{"district_id":"51.02.04","code":"51.02.04","name":"Tibu Biu (Tibubiyu)","zipcode":"82161"},{"district_id":"51.02.04","code":"51.02.04","name":"Timpag","zipcode":"82161"},{"district_id":"51.02.04","code":"51.02.04","name":"Tista","zipcode":"82161"},{"district_id":"51.02.06","code":"51.02.06","name":"Abian Tuwung","zipcode":"82121"},{"district_id":"51.02.06","code":"51.02.06","name":"Banjar Anyar","zipcode":"82123"},{"district_id":"51.02.06","code":"51.02.06","name":"Belalang","zipcode":"82121"},{"district_id":"51.02.06","code":"51.02.06","name":"Bengkel","zipcode":"82121"},{"district_id":"51.02.06","code":"51.02.06","name":"Beraban","zipcode":"82121"},{"district_id":"51.02.06","code":"51.02.06","name":"Buwit","zipcode":"82121"},{"district_id":"51.02.06","code":"51.02.06","name":"Cepaka","zipcode":"82121"},{"district_id":"51.02.06","code":"51.02.06","name":"Kaba-Kaba","zipcode":"82121"},{"district_id":"51.02.06","code":"51.02.06","name":"Kediri","zipcode":"82121"},{"district_id":"51.02.06","code":"51.02.06","name":"Nyambu","zipcode":"82121"},{"district_id":"51.02.06","code":"51.02.06","name":"Nyitdah","zipcode":"82121"},{"district_id":"51.02.06","code":"51.02.06","name":"Pandak Bandung","zipcode":"82121"},{"district_id":"51.02.06","code":"51.02.06","name":"Pandak Gede","zipcode":"82121"},{"district_id":"51.02.06","code":"51.02.06","name":"Pangkung Tibah","zipcode":"82121"},{"district_id":"51.02.06","code":"51.02.06","name":"Pejaten","zipcode":"82121"},{"district_id":"51.07.04","code":"51.07.04","name":"Bugbug","zipcode":"80811"},{"district_id":"51.07.04","code":"51.07.04","name":"Bukit","zipcode":"80811"},{"district_id":"51.07.04","code":"51.07.04","name":"Karangasem","zipcode":"80811"},{"district_id":"51.07.04","code":"51.07.04","name":"Padang Kerta","zipcode":"80811"},{"district_id":"51.07.04","code":"51.07.04","name":"Pertima","zipcode":"80811"},{"district_id":"51.07.04","code":"51.07.04","name":"Seraya Barat","zipcode":"80811"},{"district_id":"51.07.04","code":"51.07.04","name":"Seraya Tengah","zipcode":"80811"},{"district_id":"51.07.04","code":"51.07.04","name":"Seraya Timur","zipcode":"80811"},{"district_id":"51.07.04","code":"51.07.04","name":"Subagan","zipcode":"80813"},{"district_id":"51.07.04","code":"51.07.04","name":"Tegallinggah","zipcode":"80811"},{"district_id":"51.07.04","code":"51.07.04","name":"Tumbu","zipcode":"80811"},{"district_id":"51.01.05","code":"51.01.05","name":"Air Kuning","zipcode":"82218"},{"district_id":"51.01.05","code":"51.01.05","name":"Batuagung","zipcode":"82218"},{"district_id":"51.01.05","code":"51.01.05","name":"Budeng","zipcode":"82218"},{"district_id":"51.01.05","code":"51.01.05","name":"Dangin Tukadaya","zipcode":"82218"},{"district_id":"51.01.05","code":"51.01.05","name":"Dauhwaru","zipcode":"82218"},{"district_id":"51.01.05","code":"51.01.05","name":"Loloan Timur","zipcode":"82216"},{"district_id":"51.01.05","code":"51.01.05","name":"Pendem","zipcode":"82211"},{"district_id":"51.01.05","code":"51.01.05","name":"Perancak","zipcode":"82218"},{"district_id":"51.01.05","code":"51.01.05","name":"Sangkaragung","zipcode":"82218"},{"district_id":"51.01.05","code":"51.01.05","name":"Yeh Kuning","zipcode":"82218"},{"district_id":"51.04.03","code":"51.04.03","name":"Abianbase","zipcode":"80515"},{"district_id":"51.04.03","code":"51.04.03","name":"Bakbakan","zipcode":"80515"},{"district_id":"51.04.03","code":"51.04.03","name":"Beng","zipcode":"80513"},{"district_id":"51.04.03","code":"51.04.03","name":"Bitera","zipcode":"80515"},{"district_id":"51.04.03","code":"51.04.03","name":"Gianyar","zipcode":"80511"},{"district_id":"51.04.03","code":"51.04.03","name":"Lebih","zipcode":"80515"},{"district_id":"51.04.03","code":"51.04.03","name":"Petak","zipcode":"80515"},{"district_id":"51.04.03","code":"51.04.03","name":"Petak Kaja","zipcode":"80515"},{"district_id":"51.04.03","code":"51.04.03","name":"Samplangan","zipcode":"80512"},{"district_id":"51.04.03","code":"51.04.03","name":"Serongga","zipcode":"80515"},{"district_id":"51.04.03","code":"51.04.03","name":"Siangan","zipcode":"80515"},{"district_id":"51.04.03","code":"51.04.03","name":"Sidan","zipcode":"80515"},{"district_id":"51.04.03","code":"51.04.03","name":"Sumita","zipcode":"80515"},{"district_id":"51.04.03","code":"51.04.03","name":"Suwat","zipcode":"80515"},{"district_id":"51.04.03","code":"51.04.03","name":"Tegal Tugu","zipcode":"80515"},{"district_id":"51.04.03","code":"51.04.03","name":"Temesi","zipcode":"80515"},{"district_id":"51.04.03","code":"51.04.03","name":"Tulikup","zipcode":"80515"},{"district_id":"51.08.01","code":"51.08.01","name":"Banyupoh","zipcode":"81155"},{"district_id":"51.08.01","code":"51.08.01","name":"Celukan Bawang","zipcode":"81155"},{"district_id":"51.08.01","code":"51.08.01","name":"Gerokgak","zipcode":"81155"},{"district_id":"51.08.01","code":"51.08.01","name":"Musi","zipcode":"81155"},{"district_id":"51.08.01","code":"51.08.01","name":"Patas","zipcode":"81155"},{"district_id":"51.08.01","code":"51.08.01","name":"Pejarakan","zipcode":"81155"},{"district_id":"51.08.01","code":"51.08.01","name":"Pemuteran","zipcode":"81155"}]